ORBCOMM FM05            
1 25117U 97084F   25081.28931617  .00008530  00000+0  24348-2 0  9995
2 25117  45.0141  65.1693 0000564 241.4770 118.6025 14.45481415428030
ORBCOMM FM06            
1 25118U 97084G   25081.31825670  .00007402  00000+0  21119-2 0  9991
2 25118  45.0134  64.8650 0001319 289.3380 221.0798 14.45632597428955
ORBCOMM FM07            
1 25119U 97084H   25081.30193729  .00006768  00000+0  19363-2 0  9996
2 25119  45.0130  65.7056 0000591 152.6282 207.4601 14.45593986428944
ORBCOMM FM03            
1 25158U 98007B   25081.57716292  .00004069  00000+0  14789-2 0  9999
2 25158 107.9680 317.7269 0044613  38.4560 321.9746 14.34182272411623
ORBCOMM FM04            
1 25159U 98007C   25081.57660118  .00003600  00000+0  13099-2 0  9998
2 25159 107.9662 320.8880 0040448  35.6077 324.7750 14.34439028411802
ORBCOMM FM17            
1 25413U 98046A   25081.30500686  .00004248  00000+0  15311-2 0  9996
2 25413  44.9945 307.5825 0002596 123.9089 236.2005 14.34840530390693
ORBCOMM FM18            
1 25414U 98046B   25081.53348416  .00005548  00000+0  18550-2 0  9995
2 25414  44.9914 226.1881 0005944 202.9067 157.1516 14.38191704391776
ORBCOMM FM19            
1 25415U 98046C   25081.55504819  .00005745  00000+0  19267-2 0  9994
2 25415  44.9924 227.9485 0004722 196.8080 250.8609 14.37998012391732
