<?xml version="1.0" encoding="UTF-8"?>
<ndm xmlns:xsi="http://www.w3.org/2001/XMLSchema-instance" xsi:noNamespaceSchemaLocation="https://sanaregistry.org/r/ndmxml_unqualified/ndmxml-2.0.0-master-2.0.xsd">
<omm id="CCSDS_OMM_VERS" version="2.0">
<header><CREATION_DATE/><ORIGINATOR/></header><body><segment><metadata><OBJECT_NAME>ORBCOMM FM05</OBJECT_NAME><OBJECT_ID>1997-084F</OBJECT_ID><CENTER_NAME>EARTH</CENTER_NAME><REF_FRAME>TEME</REF_FRAME><TIME_SYSTEM>UTC</TIME_SYSTEM><MEAN_ELEMENT_THEORY>SGP4</MEAN_ELEMENT_THEORY></metadata><data><meanElements><EPOCH>2025-03-22T06:56:36.917088</EPOCH><MEAN_MOTION>14.45481415</MEAN_MOTION><ECCENTRICITY>.0000564</ECCENTRICITY><INCLINATION>45.0141</INCLINATION><RA_OF_ASC_NODE>65.1693</RA_OF_ASC_NODE><ARG_OF_PERICENTER>241.4770</ARG_OF_PERICENTER><MEAN_ANOMALY>118.6025</MEAN_ANOMALY></meanElements><tleParameters><EPHEMERIS_TYPE>0</EPHEMERIS_TYPE><CLASSIFICATION_TYPE>U</CLASSIFICATION_TYPE><NORAD_CAT_ID>25117</NORAD_CAT_ID><ELEMENT_SET_NO>999</ELEMENT_SET_NO><REV_AT_EPOCH>42803</REV_AT_EPOCH><BSTAR>.24348E-2</BSTAR><MEAN_MOTION_DOT>.853E-4</MEAN_MOTION_DOT><MEAN_MOTION_DDOT>0</MEAN_MOTION_DDOT></tleParameters></data></segment></body></omm>
<omm id="CCSDS_OMM_VERS" version="2.0">
<header><CREATION_DATE/><ORIGINATOR/></header><body><segment><metadata><OBJECT_NAME>ORBCOMM FM06</OBJECT_NAME><OBJECT_ID>1997-084G</OBJECT_ID><CENTER_NAME>EARTH</CENTER_NAME><REF_FRAME>TEME</REF_FRAME><TIME_SYSTEM>UTC</TIME_SYSTEM><MEAN_ELEMENT_THEORY>SGP4</MEAN_ELEMENT_THEORY></metadata><data><meanElements><EPOCH>2025-03-22T07:38:17.378880</EPOCH><MEAN_MOTION>14.45632597</MEAN_MOTION><ECCENTRICITY>.0001319</ECCENTRICITY><INCLINATION>45.0134</INCLINATION><RA_OF_ASC_NODE>64.8650</RA_OF_ASC_NODE><ARG_OF_PERICENTER>289.3380</ARG_OF_PERICENTER><MEAN_ANOMALY>221.0798</MEAN_ANOMALY></meanElements><tleParameters><EPHEMERIS_TYPE>0</EPHEMERIS_TYPE><CLASSIFICATION_TYPE>U</CLASSIFICATION_TYPE><NORAD_CAT_ID>25118</NORAD_CAT_ID><ELEMENT_SET_NO>999</ELEMENT_SET_NO><REV_AT_EPOCH>42895</REV_AT_EPOCH><BSTAR>.21119E-2</BSTAR><MEAN_MOTION_DOT>.7402E-4</MEAN_MOTION_DOT><MEAN_MOTION_DDOT>0</MEAN_MOTION_DDOT></tleParameters></data></segment></body></omm>
<omm id="CCSDS_OMM_VERS" version="2.0">
<header><CREATION_DATE/><ORIGINATOR/></header><body><segment><metadata><OBJECT_NAME>ORBCOMM FM07</OBJECT_NAME><OBJECT_ID>1997-084H</OBJECT_ID><CENTER_NAME>EARTH</CENTER_NAME><REF_FRAME>TEME</REF_FRAME><TIME_SYSTEM>UTC</TIME_SYSTEM><MEAN_ELEMENT_THEORY>SGP4</MEAN_ELEMENT_THEORY></metadata><data><meanElements><EPOCH>2025-03-22T07:14:47.381856</EPOCH><MEAN_MOTION>14.45593986</MEAN_MOTION><ECCENTRICITY>.0000591</ECCENTRICITY><INCLINATION>45.0130</INCLINATION><RA_OF_ASC_NODE>65.7056</RA_OF_ASC_NODE><ARG_OF_PERICENTER>152.6282</ARG_OF_PERICENTER><MEAN_ANOMALY>207.4601</MEAN_ANOMALY></meanElements><tleParameters><EPHEMERIS_TYPE>0</EPHEMERIS_TYPE><CLASSIFICATION_TYPE>U</CLASSIFICATION_TYPE><NORAD_CAT_ID>25119</NORAD_CAT_ID><ELEMENT_SET_NO>999</ELEMENT_SET_NO><REV_AT_EPOCH>42894</REV_AT_EPOCH><BSTAR>.19363E-2</BSTAR><MEAN_MOTION_DOT>.6768E-4</MEAN_MOTION_DOT><MEAN_MOTION_DDOT>0</MEAN_MOTION_DDOT></tleParameters></data></segment></body></omm>
<omm id="CCSDS_OMM_VERS" version="2.0">
<header><CREATION_DATE/><ORIGINATOR/></header><body><segment><metadata><OBJECT_NAME>ORBCOMM FM03</OBJECT_NAME><OBJECT_ID>1998-007B</OBJECT_ID><CENTER_NAME>EARTH</CENTER_NAME><REF_FRAME>TEME</REF_FRAME><TIME_SYSTEM>UTC</TIME_SYSTEM><MEAN_ELEMENT_THEORY>SGP4</MEAN_ELEMENT_THEORY></metadata><data><meanElements><EPOCH>2025-03-22T13:51:06.876288</EPOCH><MEAN_MOTION>14.34182272</MEAN_MOTION><ECCENTRICITY>.0044613</ECCENTRICITY><INCLINATION>107.9680</INCLINATION><RA_OF_ASC_NODE>317.7269</RA_OF_ASC_NODE><ARG_OF_PERICENTER>38.4560</ARG_OF_PERICENTER><MEAN_ANOMALY>321.9746</MEAN_ANOMALY></meanElements><tleParameters><EPHEMERIS_TYPE>0</EPHEMERIS_TYPE><CLASSIFICATION_TYPE>U</CLASSIFICATION_TYPE><NORAD_CAT_ID>25158</NORAD_CAT_ID><ELEMENT_SET_NO>999</ELEMENT_SET_NO><REV_AT_EPOCH>41162</REV_AT_EPOCH><BSTAR>.14789E-2</BSTAR><MEAN_MOTION_DOT>.4069E-4</MEAN_MOTION_DOT><MEAN_MOTION_DDOT>0</MEAN_MOTION_DDOT></tleParameters></data></segment></body></omm>
<omm id="CCSDS_OMM_VERS" version="2.0">
<header><CREATION_DATE/><ORIGINATOR/></header><body><segment><metadata><OBJECT_NAME>ORBCOMM FM04</OBJECT_NAME><OBJECT_ID>1998-007C</OBJECT_ID><CENTER_NAME>EARTH</CENTER_NAME><REF_FRAME>TEME</REF_FRAME><TIME_SYSTEM>UTC</TIME_SYSTEM><MEAN_ELEMENT_THEORY>SGP4</MEAN_ELEMENT_THEORY></metadata><data><meanElements><EPOCH>2025-03-22T13:50:18.341952</EPOCH><MEAN_MOTION>14.34439028</MEAN_MOTION><ECCENTRICITY>.0040448</ECCENTRICITY><INCLINATION>107.9662</INCLINATION><RA_OF_ASC_NODE>320.8880</RA_OF_ASC_NODE><ARG_OF_PERICENTER>35.6077</ARG_OF_PERICENTER><MEAN_ANOMALY>324.7750</MEAN_ANOMALY></meanElements><tleParameters><EPHEMERIS_TYPE>0</EPHEMERIS_TYPE><CLASSIFICATION_TYPE>U</CLASSIFICATION_TYPE><NORAD_CAT_ID>25159</NORAD_CAT_ID><ELEMENT_SET_NO>999</ELEMENT_SET_NO><REV_AT_EPOCH>41180</REV_AT_EPOCH><BSTAR>.13099E-2</BSTAR><MEAN_MOTION_DOT>.36E-4</MEAN_MOTION_DOT><MEAN_MOTION_DDOT>0</MEAN_MOTION_DDOT></tleParameters></data></segment></body></omm>
<omm id="CCSDS_OMM_VERS" version="2.0">
<header><CREATION_DATE/><ORIGINATOR/></header><body><segment><metadata><OBJECT_NAME>ORBCOMM FM17</OBJECT_NAME><OBJECT_ID>1998-046A</OBJECT_ID><CENTER_NAME>EARTH</CENTER_NAME><REF_FRAME>TEME</REF_FRAME><TIME_SYSTEM>UTC</TIME_SYSTEM><MEAN_ELEMENT_THEORY>SGP4</MEAN_ELEMENT_THEORY></metadata><data><meanElements><EPOCH>2025-03-22T07:19:12.592704</EPOCH><MEAN_MOTION>14.34840530</MEAN_MOTION><ECCENTRICITY>.0002596</ECCENTRICITY><INCLINATION>44.9945</INCLINATION><RA_OF_ASC_NODE>307.5825</RA_OF_ASC_NODE><ARG_OF_PERICENTER>123.9089</ARG_OF_PERICENTER><MEAN_ANOMALY>236.2005</MEAN_ANOMALY></meanElements><tleParameters><EPHEMERIS_TYPE>0</EPHEMERIS_TYPE><CLASSIFICATION_TYPE>U</CLASSIFICATION_TYPE><NORAD_CAT_ID>25413</NORAD_CAT_ID><ELEMENT_SET_NO>999</ELEMENT_SET_NO><REV_AT_EPOCH>39069</REV_AT_EPOCH><BSTAR>.15311E-2</BSTAR><MEAN_MOTION_DOT>.4248E-4</MEAN_MOTION_DOT><MEAN_MOTION_DDOT>0</MEAN_MOTION_DDOT></tleParameters></data></segment></body></omm>
<omm id="CCSDS_OMM_VERS" version="2.0">
<header><CREATION_DATE/><ORIGINATOR/></header><body><segment><metadata><OBJECT_NAME>ORBCOMM FM18</OBJECT_NAME><OBJECT_ID>1998-046B</OBJECT_ID><CENTER_NAME>EARTH</CENTER_NAME><REF_FRAME>TEME</REF_FRAME><TIME_SYSTEM>UTC</TIME_SYSTEM><MEAN_ELEMENT_THEORY>SGP4</MEAN_ELEMENT_THEORY></metadata><data><meanElements><EPOCH>2025-03-22T12:48:13.031424</EPOCH><MEAN_MOTION>14.38191704</MEAN_MOTION><ECCENTRICITY>.0005944</ECCENTRICITY><INCLINATION>44.9914</INCLINATION><RA_OF_ASC_NODE>226.1881</RA_OF_ASC_NODE><ARG_OF_PERICENTER>202.9067</ARG_OF_PERICENTER><MEAN_ANOMALY>157.1516</MEAN_ANOMALY></meanElements><tleParameters><EPHEMERIS_TYPE>0</EPHEMERIS_TYPE><CLASSIFICATION_TYPE>U</CLASSIFICATION_TYPE><NORAD_CAT_ID>25414</NORAD_CAT_ID><ELEMENT_SET_NO>999</ELEMENT_SET_NO><REV_AT_EPOCH>39177</REV_AT_EPOCH><BSTAR>.1855E-2</BSTAR><MEAN_MOTION_DOT>.5548E-4</MEAN_MOTION_DOT><MEAN_MOTION_DDOT>0</MEAN_MOTION_DDOT></tleParameters></data></segment></body></omm>
<omm id="CCSDS_OMM_VERS" version="2.0">
<header><CREATION_DATE/><ORIGINATOR/></header><body><segment><metadata><OBJECT_NAME>ORBCOMM FM19</OBJECT_NAME><OBJECT_ID>1998-046C</OBJECT_ID><CENTER_NAME>EARTH</CENTER_NAME><REF_FRAME>TEME</REF_FRAME><TIME_SYSTEM>UTC</TIME_SYSTEM><MEAN_ELEMENT_THEORY>SGP4</MEAN_ELEMENT_THEORY></metadata><data><meanElements><EPOCH>2025-03-22T13:19:16.163616</EPOCH><MEAN_MOTION>14.37998012</MEAN_MOTION><ECCENTRICITY>.0004722</ECCENTRICITY><INCLINATION>44.9924</INCLINATION><RA_OF_ASC_NODE>227.9485</RA_OF_ASC_NODE><ARG_OF_PERICENTER>196.8080</ARG_OF_PERICENTER><MEAN_ANOMALY>250.8609</MEAN_ANOMALY></meanElements><tleParameters><EPHEMERIS_TYPE>0</EPHEMERIS_TYPE><CLASSIFICATION_TYPE>U</CLASSIFICATION_TYPE><NORAD_CAT_ID>25415</NORAD_CAT_ID><ELEMENT_SET_NO>999</ELEMENT_SET_NO><REV_AT_EPOCH>39173</REV_AT_EPOCH><BSTAR>.19267E-2</BSTAR><MEAN_MOTION_DOT>.5745E-4</MEAN_MOTION_DOT><MEAN_MOTION_DDOT>0</MEAN_MOTION_DDOT></tleParameters></data></segment></body></omm>

</ndm>
